OBJECT_NAME,OBJECT_ID,EPOCH,MEAN_MOTION,ECCENTRICITY,INCLINATION,RA_OF_ASC_NODE,ARG_OF_PERICENTER,MEAN_ANOMALY,EPHEMERIS_TYPE,CLASSIFICATION_TYPE,NORAD_CAT_ID,ELEMENT_SET_NO,REV_AT_EPOCH,BSTAR,MEAN_MOTION_DOT,MEAN_MOTION_DDOT
TELSTAR 12V,2015-068A,2026-07-13T09:58:18.329952,1.00269781,.00020653,0.0265,49.5021,60.7508,315.6298,0,U,41036,999,3888,0,0,0
ELEKTRO-L 2,2015-074A,2026-07-13T09:58:25.818240,1.00272170,.00009735,6.7568,70.1954,213.8203,142.3782,0,U,41105,999,3876,0,-.126E-5,0
COSMOS 2513,2015-075A,2026-07-13T01:52:10.915968,1.00268860,.00026592,0.0633,103.1119,342.9533,313.1741,0,U,41121,999,3880,0,-.139E-5,0
EXPRESS-AMU1,2015-082A,2026-07-13T13:38:07.358208,1.00272692,.00023073,0.0179,71.9424,50.6863,49.4306,0,U,41191,999,3853,0,.151E-5,0
GAOFEN-4,2015-083A,2026-07-13T13:57:56.269728,1.00283169,.00037007,0.4231,83.8395,125.6902,37.0996,0,U,41194,999,3879,0,-.34E-5,0
BELINTERSAT-1,2016-001A,2026-07-13T13:42:29.438784,1.00272474,.00018978,0.0590,251.7198,177.9456,118.8885,0,U,41238,999,3850,0,.103E-5,0
IRNSS-1E,2016-003A,2026-07-10T13:58:50.692224,1.00267797,.0019285,33.2836,59.4106,178.7449,11.7354,0,U,41241,999,3831,0,-.316E-5,0
EUTELSAT 9B,2016-005A,2026-07-13T15:01:38.596224,1.00270078,.00010035,0.0326,57.4019,44.4100,64.0802,0,U,41310,999,3838,0,.57E-6,0
SES-9,2016-013A,2026-07-13T08:50:46.228704,1.00270625,.00020542,0.0161,330.6598,134.6810,66.9019,0,U,41380,999,3770,0,-.348E-5,0
EUTELSAT 65 WEST A,2016-014A,2026-07-13T12:28:39.556128,1.00269766,.00020058,0.0629,319.8175,155.2060,298.3468,0,U,41382,999,3778,0,-.28E-5,0
IRNSS-1F,2016-015A,2026-07-13T06:46:33.171168,1.00265247,.0017704,5.4126,96.1780,180.2487,148.9163,0,U,41384,999,3792,0,.149E-5,0
BEIDOU-2 IGSO-6,2016-021A,2026-06-26T02:38:38.671584,1.00258926,.0057558,60.2385,37.9495,231.0163,137.2672,0,U,41434,999,3757,0,-.145E-5,0
IRNSS-1G,2016-027A,2026-07-13T13:49:39.226944,1.00271948,.00059654,5.2589,96.8643,10.2806,161.4006,0,U,41469,999,3744,0,-.343E-5,0
JCSAT-2B,2016-028A,2026-07-13T12:13:38.710848,1.00269730,.00007416,0.0176,37.2242,79.7675,151.8010,0,U,41471,999,3739,0,-.169E-5,0
THAICOM 8,2016-031A,2026-07-13T13:50:12.012288,1.00270469,.00029466,0.0731,47.9505,26.0992,143.4362,0,U,41552,999,3698,0,-.125E-5,0
INTELSAT 31 (IS-31),2016-035A,2026-07-13T04:27:28.037952,1.00271434,.0001139,0.0160,289.2103,354.6494,339.0259,0,U,41581,999,3694,0,-.153E-5,0
BEIDOU-2 G7,2016-037A,2026-07-13T14:23:41.532000,1.00274317,.0005989,1.7822,69.4829,359.3149,189.1294,0,U,41586,999,715,0,-.359E-5,0
ABS-2A (MONGOLSAT-1),2016-038A,2026-07-13T10:23:53.377152,1.00269028,.00012223,0.0128,27.9629,28.3002,105.7114,0,U,41588,999,3697,0,-.87E-6,0
EUTELSAT 117 WEST B,2016-038B,2026-07-13T14:37:10.859808,1.00270408,.00003185,0.0084,193.6012,283.7949,276.3830,0,U,41589,999,3692,0,-.16E-6,0
BRISAT,2016-039A,2026-07-13T12:13:38.710848,1.00268953,.00018682,0.0180,19.5359,95.2920,150.4690,0,U,41591,999,3687,0,0,0
ECHOSTAR 18,2016-039B,2026-07-13T11:27:43.379424,1.00270731,.00013351,0.0046,102.9535,20.0827,278.8778,0,U,41592,999,3688,0,-.286E-5,0
MUOS-5,2016-041A,2026-07-13T14:40:10.572672,1.00271740,.01994952,2.1483,302.1755,260.6391,203.5716,0,U,41622,999,3735,0,-.133E-5,0
TIANTONG-1 1,2016-048A,2026-07-13T13:56:48.877728,1.00269505,.00049407,3.8987,43.6127,57.9185,140.5169,0,U,41725,999,3653,0,-.323E-5,0
JCSAT-16,2016-050A,2026-07-13T13:54:24.676128,1.00270397,.00010577,0.0185,36.9536,106.0425,141.0043,0,U,41729,999,3633,0,-.255E-5,0
USA 270,2016-052A,2026-07-11T11:26:02.408928,1.00269374,.0009314,4.2578,76.8776,101.3149,48.8838,0,U,41744,999,2837,0,-.349E-5,0
USA 271,2016-052B,2026-07-07T17:38:01.230144,1.00271212,.0010955,4.2217,76.9947,166.6184,44.5685,0,U,41745,999,2812,0,-.278E-5,0
INTELSAT 36 (IS-36),2016-053A,2026-07-13T13:47:19.787712,1.00270088,.00024974,0.0103,21.6142,318.9574,226.1919,0,U,41747,999,3622,0,-.28E-6,0
INSAT-3DR,2016-054A,2026-07-13T13:48:57.132000,1.00270626,.00106177,0.0657,88.7020,181.2520,302.7347,0,U,41752,999,3608,0,-.81E-6,0
GSAT-18,2016-060A,2026-07-13T13:48:57.132000,1.00271120,.00052254,0.0312,89.5821,348.6232,134.4479,0,U,41793,999,3579,0,-.81E-6,0
SKY MUSTER 2 (NBN1B),2016-060B,2026-07-13T12:26:22.409952,1.00268891,.00015869,0.0211,43.3705,82.3428,137.0751,0,U,41794,999,3578,0,0,0
HIMAWARI-9,2016-064A,2026-07-13T14:07:58.659168,1.00270073,.00018348,0.0078,101.5563,72.1625,110.4809,0,U,41836,999,3547,0,-.279E-5,0
SHIJIAN-17 (SJ-17),2016-065A,2026-07-13T11:25:13.248192,0.99864866,.0001842,5.8172,72.2854,46.2871,180.8896,0,U,41838,999,3546,0,.74E-6,0
GOES 16,2016-071A,2026-07-13T14:40:40.524960,1.00270870,.00005318,0.3998,85.4910,100.1731,221.2981,0,U,41866,999,3536,0,-.95E-6,0
TIANLIAN 1-04,2016-072A,2026-07-13T14:18:20.166336,1.00270940,.00440001,0.9342,82.7416,90.3832,149.7141,0,U,41869,999,3556,0,.25E-6,0
WGS F8 (USA 272),2016-075A,2026-07-13T04:51:38.592864,1.00273272,.00002661,0.0165,38.7362,4.9814,110.1051,0,U,41879,999,3508,0,-.204E-5,0
FENGYUN 4A,2016-077A,2026-07-13T13:46:09.533280,1.00268981,.00084916,2.3861,79.9819,159.4460,22.3231,0,U,41882,999,3519,0,-.363E-5,0
ECHOSTAR 19,2016-079A,2026-07-13T04:26:50.599104,1.00271781,.0001212,0.0153,51.5001,69.6947,139.4764,0,U,41893,999,3496,0,-.141E-5,0
JCSAT-110A (JCSAT-15),2016-082A,2026-07-13T12:16:38.344224,1.00270732,.00004066,0.0048,97.0756,46.2809,82.2574,0,U,41903,999,3502,0,-.355E-5,0
STAR ONE D1,2016-082B,2026-07-13T13:03:55.636416,1.00268918,.00023163,0.0395,68.1776,54.0894,281.1748,0,U,41904,999,3503,0,0,0
TJS-2,2017-001A,2026-07-13T14:43:50.885760,1.00270222,.00008118,0.8991,84.9707,111.2430,22.7741,0,U,41911,999,3498,0,-.11E-6,0
SBIRS GEO-4 (USA 273),2017-004A,2026-07-13T13:34:00.253344,1.00282363,.00025223,2.2924,43.9394,67.1514,45.4463,0,U,41937,999,3486,0,.122E-5,0
HISPASAT 36W-1,2017-006A,2026-07-12T09:55:07.747968,1.00269817,.00009783,0.0105,294.5422,175.6146,292.9324,0,U,41942,999,3449,0,-.243E-5,0
TELKOM 3S,2017-007A,2026-07-13T14:01:33.423168,1.00271110,.00019779,0.0164,77.7986,32.9089,149.1408,0,U,41944,999,3440,0,-.367E-5,0
INTELSAT 32E (IS-32E),2017-007B,2026-07-13T02:59:34.700352,1.00269412,.00004255,0.0250,44.8942,284.8742,322.9651,0,U,41945,999,3448,0,0,0
ECHOSTAR 23,2017-014A,2026-07-13T14:39:10.668096,1.00270990,.00021115,0.0035,111.5087,357.8016,292.0671,0,U,42070,999,3418,0,-.61E-6,0
WGS F9 (USA 275),2017-016A,2026-07-13T08:16:27.020352,1.00272704,.00004287,0.0258,27.2794,201.6292,174.4566,0,U,42075,999,3415,0,0,0
SES-10,2017-017A,2026-07-13T12:16:50.855808,1.00268495,.00025058,0.0148,39.0668,79.2025,290.4318,0,U,42432,999,3401,0,-.276E-5,0
CHINASAT 16 (SJ-13),2017-018A,2026-07-12T07:11:29.959584,1.00269643,.0004971,0.0894,88.8799,134.5834,285.1393,0,U,42662,999,3400,0,-.35E-5,0
KOREASAT 7,2017-023A,2026-07-13T13:39:36.572256,1.00272004,.00009508,0.0245,50.4043,94.5450,107.2938,0,U,42691,999,3363,0,-.366E-5,0
SGDC,2017-023B,2026-07-13T09:34:19.661952,1.00270975,.00021905,0.0177,59.1379,61.4554,239.4153,0,U,42692,999,3366,0,-.253E-5,0
GSAT-9,2017-024A,2026-07-13T14:36:58.846752,1.00268233,.00023192,0.0824,91.3942,31.1201,125.4907,0,U,42695,999,3356,0,-.29E-5,0
INMARSAT 5-F4,2017-025A,2026-07-12T21:31:38.606304,1.00271282,.00004924,0.0033,107.1279,104.2620,98.8155,0,U,42698,999,3353,0,.74E-6,0
SES-15,2017-026A,2026-07-13T11:25:38.676576,1.00278934,.000085,0.0268,325.7856,173.2050,194.6194,0,U,42709,999,769,0,.55E-6,0
QZS-2 (MICHIBIKI-2),2017-028A,2026-07-13T11:01:56.072064,1.00277190,.07576695,39.3889,242.7664,269.5797,86.8751,0,U,42738,999,789,0,-.108E-5,0
VIASAT-2,2017-029A,2026-07-13T13:07:40.277280,1.00271252,.00002068,0.0187,308.5554,276.8390,193.0644,0,U,42740,999,3346,0,-.269E-5,0
EUTELSAT 172B,2017-029B,2026-07-13T04:00:58.812768,1.00271032,.0000187,0.0267,133.3413,155.5899,234.3656,0,U,42741,999,3400,0,-.8E-7,0
GSAT-19,2017-031A,2026-07-13T13:41:29.535072,1.00270554,.00061793,0.0347,87.2849,1.2876,96.1327,0,U,42747,999,3341,0,.121E-5,0
ECHOSTAR 21,2017-032A,2026-07-13T15:01:38.596224,1.00272951,.00019494,1.7705,357.3999,110.5303,59.2489,0,U,42749,999,3336,0,.64E-6,0
BULGARIASAT-1,2017-038A,2026-07-13T06:37:49.008288,1.00271331,.0003139,0.0319,65.5778,61.1304,265.7776,0,U,42801,999,3310,0,0,0
HELLAS-SAT 3,2017-040A,2026-07-13T13:38:59.773632,1.00270378,.0003187,0.0464,45.1821,30.0852,99.9119,0,U,42814,999,3307,0,.148E-5,0
GSAT-17,2017-040B,2026-07-13T13:54:26.604576,1.00270992,.00022416,0.0681,88.3724,168.5571,336.6281,0,U,42815,999,3305,0,-.262E-5,0
INTELSAT 35E (IS-35E),2017-041A,2026-07-12T21:54:05.343840,1.00269769,.00015813,0.0167,45.3733,65.1012,114.3450,0,U,42818,999,3307,0,-.239E-5,0
COSMOS 2520,2017-046A,2026-07-13T13:40:37.117920,1.00269013,.00010052,0.0360,107.2658,351.2355,83.0669,0,U,42907,999,3266,0,.133E-5,0
TDRS 13,2017-047A,2026-07-13T09:59:10.747104,1.00271480,.00147156,3.4588,3.3673,111.3375,314.9787,0,U,42915,999,3261,0,-.104E-5,0
QZS-3 (MICHIBIKI-3),2017-048A,2026-07-13T12:21:22.888800,1.00272892,.0002491,0.0681,215.9981,270.3725,117.3977,0,U,42917,999,3252,0,-.352E-5,0
AMAZONAS 5,2017-053A,2026-07-13T13:10:25.013568,1.00269079,.0001012,0.0331,326.1417,116.7516,345.1257,0,U,42934,999,3230,0,-.286E-5,0
ASIASAT 9,2017-057A,2026-07-12T05:32:14.975232,1.00270973,.0002384,0.0162,36.7195,67.2830,31.2902,0,U,42942,999,3211,0,-.357E-5,0
INTELSAT 37E (IS-37E),2017-059A,2026-07-13T00:48:38.471040,1.00270449,.00024848,0.0156,71.5028,47.5543,166.0149,0,U,42950,999,3232,0,-.143E-5,0
BSAT-4A,2017-059B,2026-07-13T12:16:30.855936,1.00272286,.00033938,0.0357,21.9752,56.7278,146.6395,0,U,42951,999,3206,0,-.354E-5,0
QZS-4 (MICHIBIKI-4),2017-062A,2026-07-12T17:38:03.472224,1.00290649,.07474587,40.0933,343.1604,268.5188,82.4158,0,U,42965,999,3205,0,-.331E-5,0
SES-11 (ECHOSTAR 105),2017-063A,2026-07-13T14:40:33.036672,1.00270976,.00026328,0.0415,294.2273,167.8244,304.6161,0,U,42967,999,3198,0,-.93E-6,0
KOREASAT 5A,2017-067A,2026-07-13T14:00:03.566304,1.00270635,.00007017,0.0122,35.9236,84.0477,134.6504,0,U,42984,999,3179,0,-.362E-5,0
